{
  "type": "FeatureCollection",
  "features": [
    {
      "type": "Feature",
      "properties": {
        "title": "Clevedon (Home Base)",
        "category": "Itinerary Stop",
        "date": "2026-07-28",
        "who": "All",
        "description": "Arrival day — settle in, welcome dinner. Base for the whole visit.",
        "website": "https://www.visitclevedon.co.uk/",
        "image": "images/places/01-clevedon-home-base__1633818.jpg",
        "image_backup": "https://nt.global.ssl.fastly.net/binaries/content/gallery/website/national/regions/bath-bristol/places/clevedon-court/library/spring/1633818.jpg"
      },
      "geometry": {
        "type": "Point",
        "coordinates": [
          -2.8527,
          51.4361
        ]
      }
    },
    {
      "type": "Feature",
      "properties": {
        "title": "Castle Combe",
        "category": "Itinerary Stop",
        "date": "2026-07-29",
        "who": "4 adults + Amelia",
        "description": "Quintessential Cotswolds village walk.",
        "website": "https://www.castlecombe.com/",
        "image": "images/places/02-castle-combe__A_street_in_Castle_Combe.jpg",
        "image_backup": "https://upload.wikimedia.org/wikipedia/commons/a/ac/A_street_in_Castle_Combe.jpg"
      },
      "geometry": {
        "type": "Point",
        "coordinates": [
          -2.229,
          51.4934
        ]
      }
    },
    {
      "type": "Feature",
      "properties": {
        "title": "Lacock Abbey & Village",
        "category": "Itinerary Stop",
        "date": "2026-07-29",
        "who": "4 adults + Amelia",
        "description": "Historic National Trust abbey and village — a Harry Potter filming location, a must for Amelia!",
        "website": "https://www.nationaltrust.org.uk/visit/wiltshire/lacock-abbey-fox-talbot-museum-and-village",
        "image": "images/places/03-lacock-abbey-and-village__1742375.jpg",
        "heritage_organization": "National Trust",
        "image_backup": "https://nt.global.ssl.fastly.net/binaries/content/gallery/website/national/regions/wiltshire/places/lacock/library/summer/1742375.jpg"
      },
      "geometry": {
        "type": "Point",
        "coordinates": [
          -2.1169,
          51.4148
        ]
      }
    },
    {
      "type": "Feature",
      "properties": {
        "title": "Old Sarum",
        "category": "Itinerary Stop",
        "date": "2026-07-30",
        "who": "4 adults + Amelia",
        "description": "Ruins of the original Salisbury — an Iron Age hill fort, Roman settlement and Norman castle.",
        "website": "https://www.english-heritage.org.uk/visit/places/old-sarum/",
        "image": "images/places/06-old-sarum__old-sarum-aerial-shutterstock.png",
        "heritage_organization": "English Heritage",
        "image_backup": "https://www.english-heritage.org.uk/siteassets/home/visit/places-to-visit/old-sarum/old-sarum-aerial-shutterstock.png?w=550&h=442&mode=crop&scale=both&cache=always&quality=60&anchor=&WebsiteVersion=20200219"
      },
      "geometry": {
        "type": "Point",
        "coordinates": [
          -1.8047,
          51.0934
        ]
      }
    },
    {
      "type": "Feature",
      "properties": {
        "title": "Salisbury Cathedral",
        "category": "Itinerary Stop",
        "date": "2026-07-30",
        "who": "4 adults + Amelia",
        "description": "Magnificent medieval cathedral, home to the best-preserved original copy of the Magna Carta. Lunch at The Chapter House at 12:30.",
        "website": "https://www.salisburycathedral.org.uk/",
        "image": "images/places/07-salisbury-cathedral__Salisbury_Cathedral_from_the_Bishop_Grounds_c.1825.jpg",
        "image_backup": "https://upload.wikimedia.org/wikipedia/commons/thumb/c/cb/Salisbury_Cathedral_from_the_North_West.jpg/640px-Salisbury_Cathedral_from_the_North_West.jpg"
      },
      "geometry": {
        "type": "Point",
        "coordinates": [
          -1.7973,
          51.065
        ]
      }
    },
    {
      "type": "Feature",
      "properties": {
        "title": "Stonehenge",
        "category": "Itinerary Stop",
        "date": "2026-07-30",
        "who": "4 adults + Amelia",
        "description": "Historic stone circle — one of the world's most famous prehistoric monuments.",
        "website": "https://www.english-heritage.org.uk/visit/places/stonehenge/",
        "image": "images/places/08-stonehenge__solstice-banner.jpg",
        "heritage_organization": "English Heritage",
        "image_backup": "https://www.english-heritage.org.uk/siteassets/home/visit/places-to-visit/stonehenge/solstice-banner.jpg?w=550&h=442&mode=crop&scale=both&cache=always&quality=60&anchor=&WebsiteVersion=20200219"
      },
      "geometry": {
        "type": "Point",
        "coordinates": [
          -1.8262,
          51.1789
        ]
      }
    },
    {
      "type": "Feature",
      "properties": {
        "title": "Goodrich Castle",
        "category": "Itinerary Stop",
        "date": "2026-07-31",
        "who": "Full group inc. Al & Frank",
        "description": "Impressive medieval castle in the Wye Valley, English Heritage.",
        "website": "https://www.english-heritage.org.uk/visit/places/goodrich-castle/",
        "image": "images/places/09-goodrich-castle__goodrich-23_web-banner-still.jpg",
        "heritage_organization": "English Heritage",
        "image_backup": "https://www.english-heritage.org.uk/siteassets/home/visit/places-to-visit/goodrich-castle/goodrich-23_web-banner-still.jpg?w=550&h=442&mode=crop&scale=both&cache=always&quality=60&anchor=&WebsiteVersion=20200219"
      },
      "geometry": {
        "type": "Point",
        "coordinates": [
          -2.6155,
          51.8768
        ]
      }
    },
    {
      "type": "Feature",
      "properties": {
        "title": "The Anchor Inn (Tintern)",
        "category": "Food Option",
        "date": "2026-07-31",
        "who": "Full group inc. Al & Frank",
        "description": "Traditional riverside pub in Tintern — lunch stop alongside the abbey visit.",
        "website": "",
        "image": "images/places/10-the-anchor-inn-tintern__Tintern_village.jpg",
        "image_backup": "https://upload.wikimedia.org/wikipedia/commons/2/27/Tintern_village.jpg"
      },
      "geometry": {
        "type": "Point",
        "coordinates": [
          -2.6762,
          51.6966
        ]
      }
    },
    {
      "type": "Feature",
      "properties": {
        "title": "Tintern Abbey",
        "category": "Itinerary Stop",
        "date": "2026-07-31",
        "who": "Full group inc. Al & Frank",
        "description": "Spectacular ruined Cistercian abbey in the Wye Valley — boys arrive ~10am and join here.",
        "website": "https://cadw.gov.wales/visit/places-to-visit/tintern-abbey",
        "image": "images/places/12-tintern-abbey__SVW-C29-1314-0066.JPG",
        "heritage_organization": "Cadw",
        "image_backup": "https://cadw.gov.wales/sites/default/files/styles/promo/public/2019-05/SVW-C29-1314-0066.JPG?h=6103f89c&itok=l6cpm250"
      },
      "geometry": {
        "type": "Point",
        "coordinates": [
          -2.6767,
          51.6971
        ]
      }
    },
    {
      "type": "Feature",
      "properties": {
        "title": "Cheddar Gorge",
        "category": "Itinerary Stop",
        "date": "2026-08-01",
        "who": "Full group inc. Al & Frank",
        "description": "Dramatic limestone gorge and cliff walks — afternoon visit.",
        "website": "https://www.cheddargorge.co.uk/",
        "image": "images/places/13-cheddar-gorge__cheddar-gorge-somerset-1334813.jpg",
        "heritage_organization": "National Trust",
        "image_backup": "https://nt.global.ssl.fastly.net/binaries/content/gallery/website/national/regions/somerset/places/cheddar-gorge/library/summer/cheddar-gorge-somerset-1334813.jpg"
      },
      "geometry": {
        "type": "Point",
        "coordinates": [
          -2.7597,
          51.2854
        ]
      }
    },
    {
      "type": "Feature",
      "properties": {
        "title": "Chew Valley Lake",
        "category": "Itinerary Stop",
        "date": "2026-08-01",
        "who": "Full group inc. Al & Frank",
        "description": "Scenic reservoir and wildlife walk — morning with the full group. Chew Valley Animal Park in the morning.",
        "website": "https://www.bristolwater.co.uk/chew-valley-lake/",
        "image": "images/places/14-chew-valley-lake__Chew_Valley_Lake,_Somerset,_UK_8_September_2025.png",
        "image_backup": "https://upload.wikimedia.org/wikipedia/commons/thumb/2/23/Chew_Valley_Lake_from_the_dam_-_geograph.org.uk_-_436034.jpg/640px-Chew_Valley_Lake_from_the_dam_-_geograph.org.uk_-_436034.jpg"
      },
      "geometry": {
        "type": "Point",
        "coordinates": [
          -2.6175,
          51.3359
        ]
      }
    },
    {
      "type": "Feature",
      "properties": {
        "title": "Stourhead",
        "category": "Itinerary Stop",
        "date": "2026-08-02",
        "who": "Full group inc. Al & Frank",
        "description": "Breathtaking 18th-century landscape garden on the Wiltshire–Somerset border — lakeside walks, classical temples, and a Palladian mansion. National Trust lunch included.",
        "website": "https://www.nationaltrust.org.uk/visit/wiltshire/stourhead",
        "image": "images/places/36-stourhead__stourhead-lake-bridge.jpg",
        "heritage_organization": "National Trust",
        "image_backup": "https://nt.global.ssl.fastly.net/binaries/content/gallery/website/national/regions/wiltshire/places/stourhead/library/spring/1537729.jpg"
      },
      "geometry": {
        "type": "Point",
        "coordinates": [
          -2.3395,
          51.1047
        ]
      }
    },
    {
      "type": "Feature",
      "properties": {
        "title": "Bristol City Centre",
        "category": "Itinerary Stop",
        "date": "2026-08-03",
        "who": "Fabio and Silvia (Amelia at summer school)",
        "description": "Bristol and shopping — Cabot Circus, harbourside, Avon Gorge Cruise, and the city's vibrant food and culture scene. Boys leave at 9:30 from Bristol Bus Station.",
        "website": "https://www.visitbristol.co.uk/",
        "image": "images/places/21-bristol-city-centre__Bristol_Waterfront.jpg",
        "image_backup": "https://upload.wikimedia.org/wikipedia/commons/7/72/Bristol_Waterfront.jpg"
      },
      "geometry": {
        "type": "Point",
        "coordinates": [
          -2.5854,
          51.4584
        ]
      }
    },
    {
      "type": "Feature",
      "properties": {
        "title": "Ashton Court Estate",
        "category": "Itinerary Stop",
        "date": "2026-08-03",
        "who": "Fabio and Silvia (Amelia at summer school)",
        "description": "Magnificent 850-acre estate on the edge of Bristol — great for a walk with panoramic city views.",
        "website": "https://www.bristol.gov.uk/museums-parks-sports-culture/ashton-court-estate",
        "image": "images/places/20-ashton-court-estate__Ashton_Court_Mansion_-_geograph.org.uk_-_1567115.jpg",
        "image_backup": "https://upload.wikimedia.org/wikipedia/commons/thumb/c/c5/Ashton_Court_Mansion_-_geograph.org.uk_-_1567115.jpg/640px-Ashton_Court_Mansion_-_geograph.org.uk_-_1567115.jpg"
      },
      "geometry": {
        "type": "Point",
        "coordinates": [
          -2.6438,
          51.4461
        ]
      }
    },
    {
      "type": "Feature",
      "properties": {
        "title": "Bradford on Avon",
        "category": "Itinerary Stop",
        "date": "2026-08-04",
        "who": "Fabio and Silvia (Amelia at summer school)",
        "description": "Beautiful market town — visit the medieval Tithe Barn and the Saxon Church of St Laurence.",
        "website": "https://www.bradfordonavon.co.uk/",
        "image": "images/places/22-bradford-on-avon__bradford-tithe-barn-hero.jpg",
        "image_backup": "https://www.english-heritage.org.uk/siteassets/home/visit/places-to-visit/bradford-on-avon-tithe-barn/bradford-tithe-barn-hero.jpg?w=550&h=442&mode=crop&scale=both&cache=always&quality=60&anchor=&WebsiteVersion=20200219"
      },
      "geometry": {
        "type": "Point",
        "coordinates": [
          -2.2504,
          51.3467
        ]
      }
    },
    {
      "type": "Feature",
      "properties": {
        "title": "Farleigh Hungerford Castle",
        "category": "Itinerary Stop",
        "date": "2026-08-04",
        "who": "Fabio and Silvia (Amelia at summer school)",
        "description": "Ruined 14th-century castle with a fascinating chapel containing medieval wall paintings and tombs.",
        "website": "https://www.english-heritage.org.uk/visit/places/farleigh-hungerford-castle/",
        "image": "images/places/23-farleigh-hungerford-castle__farleigh_banner-jan24.png",
        "heritage_organization": "English Heritage",
        "image_backup": "https://www.english-heritage.org.uk/siteassets/home/visit/places-to-visit/farleigh-hungerford/farleigh_banner-jan24.png?w=550&h=442&mode=crop&scale=both&cache=always&quality=60&anchor=&WebsiteVersion=20200219"
      },
      "geometry": {
        "type": "Point",
        "coordinates": [
          -2.287,
          51.3175
        ]
      }
    },
    {
      "type": "Feature",
      "properties": {
        "title": "Montacute House",
        "category": "Itinerary Stop",
        "date": "2026-08-05",
        "who": "Fabio and Silvia only (Amelia at summer school)",
        "description": "Magnificent Elizabethan National Trust mansion in Somerset with formal gardens.",
        "website": "https://www.nationaltrust.org.uk/visit/somerset/montacute-house",
        "image": "images/places/34-montacute-house__1676341-chesnut-tree-and-cedar-lawn-at-montacute-house-somerset-chris-davies.jpg",
        "heritage_organization": "National Trust",
        "image_backup": "https://nt.global.ssl.fastly.net/binaries/content/gallery/website/national/regions/somerset/places/montacute-house/library/summer/1676341-chesnut-tree-and-cedar-lawn-at-montacute-house-somerset-chris-davies.jpg"
      },
      "geometry": {
        "type": "Point",
        "coordinates": [
          -2.714,
          50.9517
        ]
      }
    },
    {
      "type": "Feature",
      "properties": {
        "title": "Dunster Castle & Village",
        "category": "Itinerary Stop",
        "date": "2026-08-06",
        "who": "Fabio and Silvia (Amelia at summer school)",
        "description": "Picturesque medieval village and National Trust castle on the edge of Exmoor.",
        "website": "https://www.nationaltrust.org.uk/visit/somerset/dunster-castle-and-watermill",
        "image": "images/places/30-dunster-castle-and-village__exterior-dunster-castle-somerset-1364017.jpg",
        "heritage_organization": "National Trust",
        "image_backup": "https://nt.global.ssl.fastly.net/binaries/content/gallery/website/national/regions/somerset/places/dunster-castle-and-watermill/library/autumn/exterior-dunster-castle-somerset-1364017.jpg"
      },
      "geometry": {
        "type": "Point",
        "coordinates": [
          -3.4437,
          51.1817
        ]
      }
    },
    {
      "type": "Feature",
      "properties": {
        "title": "Exmoor National Park",
        "category": "Itinerary Stop",
        "date": "2026-08-06",
        "who": "Fabio and Silvia (Amelia at summer school)",
        "description": "Beautiful moorland national park — dramatic coastal scenery and wild ponies.",
        "website": "https://www.exmoor-nationalpark.gov.uk/",
        "image": "images/places/31-exmoor-national-park__North_Devon_Exmoor.jpg",
        "image_backup": "https://upload.wikimedia.org/wikipedia/commons/d/d2/North_Devon_Exmoor.jpg"
      },
      "geometry": {
        "type": "Point",
        "coordinates": [
          -3.604,
          51.1338
        ]
      }
    },
    {
      "type": "Feature",
      "properties": {
        "title": "Wells Cathedral",
        "category": "Itinerary Stop",
        "date": "2026-08-07",
        "who": "Fabio and Silvia (Amelia at summer school)",
        "description": "England's smallest city with a stunning medieval cathedral and Bishop's Palace moat.",
        "website": "https://www.wellscathedral.org.uk/",
        "image": "images/places/29-wells-cathedral__Wells_Cathedral_from_the_air.jpg",
        "image_backup": "https://upload.wikimedia.org/wikipedia/commons/thumb/a/a2/Wells_Cathedral_from_the_air.jpg/640px-Wells_Cathedral_from_the_air.jpg"
      },
      "geometry": {
        "type": "Point",
        "coordinates": [
          -2.6445,
          51.2103
        ]
      }
    },
    {
      "type": "Feature",
      "properties": {
        "title": "Glastonbury Tor",
        "category": "Itinerary Stop",
        "date": "2026-08-07",
        "who": "Fabio and Silvia (Amelia at summer school)",
        "description": "Iconic hill and St Michael's tower — a legendary Somerset landmark with panoramic views.",
        "website": "https://www.nationaltrust.org.uk/visit/somerset/glastonbury-tor",
        "image": "images/places/26-glastonbury-tor__st-michaels-tower-glastonbury-tor-somerset-1362928.jpg",
        "heritage_organization": "National Trust",
        "image_backup": "https://nt.global.ssl.fastly.net/binaries/content/gallery/website/national/regions/somerset/places/glastonbury-tor/library/st-michaels-tower-glastonbury-tor-somerset-1362928.jpg"
      },
      "geometry": {
        "type": "Point",
        "coordinates": [
          -2.6987,
          51.1447
        ]
      }
    },
    {
      "type": "Feature",
      "properties": {
        "title": "Clarke's Village (Outlet)",
        "category": "Itinerary Stop",
        "date": "2026-08-07",
        "who": "Fabio and Silvia (Amelia at summer school)",
        "description": "Popular designer outlet village in Street, Somerset — great for shopping.",
        "website": "https://www.clarksvillage.co.uk/",
        "image": "images/places/25-clarke-s-village-outlet__cv_headerimage_parking.jpg",
        "image_backup": "https://content.landsec.com/media/tuwpyomf/cv_headerimage_parking.jpg"
      },
      "geometry": {
        "type": "Point",
        "coordinates": [
          -2.7399,
          51.1285
        ]
      }
    },
    {
      "type": "Feature",
      "properties": {
        "title": "Bristol Balloon Fiesta Nightglow",
        "category": "Itinerary Stop",
        "date": "2026-08-07",
        "who": "Fabio and Silvia (Amelia at summer school)",
        "description": "The spectacular evening Nightglow event at the Bristol International Balloon Fiesta, Ashton Court Estate.",
        "website": "https://www.bristolballoonfiesta.co.uk/",
        "image": "images/places/32-bristol-balloon-fiesta-nightglow__64537d24793dc750740a43a0_Balloon-Sharing-Img.png",
        "image_backup": "https://cdn.prod.website-files.com/641daf812bc7f4c4502f6d84/64537d24793dc750740a43a0_Balloon-Sharing-Img.png"
      },
      "geometry": {
        "type": "Point",
        "coordinates": [
          -2.6438,
          51.4461
        ]
      }
    },
    {
      "type": "Feature",
      "properties": {
        "title": "Cotswolds",
        "category": "Itinerary Stop",
        "date": "2026-08-08",
        "who": "All Adults (Amelia on day trip)",
        "description": "A day exploring the iconic honey-stone villages of the Cotswolds — rolling hills, picture-perfect streets and traditional English countryside.",
        "website": "https://www.cotswolds.com/",
        "image": "images/places/37-cotswolds__cotswolds-village.jpg",
        "image_backup": "https://upload.wikimedia.org/wikipedia/commons/thumb/a/ac/A_street_in_Castle_Combe.jpg/640px-A_street_in_Castle_Combe.jpg"
      },
      "geometry": {
        "type": "Point",
        "coordinates": [
          -1.8433,
          51.8330
        ]
      }
    },
    {
      "type": "Feature",
      "properties": {
        "title": "The Malago",
        "category": "Food Option",
        "date": "2026-08-09",
        "who": "All",
        "description": "Relaxed Sunday and Sunday roast lunch at The Malago, a popular gastropub on North Street, Bedminster, Bristol.",
        "website": "https://www.themalago.co.uk/",
        "image": "images/places/38-the-malago__the-malago-bristol.jpg",
        "image_backup": "https://www.themalago.co.uk/wp-content/uploads/2019/01/malago-exterior.jpg"
      },
      "geometry": {
        "type": "Point",
        "coordinates": [
          -2.5974,
          51.4388
        ]
      }
    },
    {
      "type": "Feature",
      "properties": {
        "title": "Oxford",
        "category": "Itinerary Stop",
        "date": "2026-08-10",
        "who": "4 adults + Amelia",
        "description": "Final days trip to Oxford — the dreaming spires, Bodleian Library, Christ Church College, punting, Botanic Garden and the Ashmolean Museum.",
        "website": "https://www.experienceoxfordshire.org/",
        "image": "images/places/35-oxford__Experience-Oxfordshire-Oxford-compressed15-scaled-1340x894.jpg",
        "image_backup": "https://www.experienceoxfordshire.org/wp-content/uploads/2017/03/Experience-Oxfordshire-Oxford-compressed15-scaled-1340x894.jpg"
      },
      "geometry": {
        "type": "Point",
        "coordinates": [
          -1.2578,
          51.752
        ]
      }
    }
  ]
}
